{
  "type": "FeatureCollection",
  "name": "blekingerundan_v1",
  "features": [
    {
      "type": "Feature",
      "geometry": null,
      "properties": {
        "stop_order": 1,
        "public_id": "blekinge-butiken-bromolla",
        "name": "Butiken Secondhand Bromölla",
        "address": "Industrigatan 3",
        "postcode": null,
        "locality": "Bromölla",
        "latitude": null,
        "longitude": null,
        "tuesday_opens": "09:30",
        "tuesday_closes": "12:00",
        "tuesday_status": "verified_open",
        "candidate_status": "conditional",
        "visit_minutes": 30,
        "assessment": "Villkorat kommunalt återbruksstopp med kläder, textilier och mindre prylar; kort tisdagsfönster och svagare profil för möbler och större elektronik.",
        "source_url": "https://www.bromolla.se/butiken",
        "checked_at": "2026-07-26",
        "notes": "Adress och tisdagstid verifierade på Bromölla kommuns sida. Postnummer och koordinater lämnas NULL. Stoppordningen är inte fullständigt tidsoptimerad."
      }
    },
    {
      "type": "Feature",
      "geometry": null,
      "properties": {
        "stop_order": 2,
        "public_id": "blekinge-majas-kristianstad",
        "name": "Majas Secondhand Kristianstad",
        "address": "Nässelvägen 5",
        "postcode": "291 59",
        "locality": "Kristianstad",
        "latitude": null,
        "longitude": null,
        "tuesday_opens": "10:00",
        "tuesday_closes": "18:00",
        "tuesday_status": "verified_open",
        "candidate_status": "selected",
        "visit_minutes": 60,
        "assessment": "Hög prioritet: cirka 1100 kvadratmeter och bred second hand-profil med tydligt fyndvärde.",
        "source_url": "https://www.majassecondhand.se/om-oss/",
        "checked_at": "2026-07-26",
        "notes": "Adress, postnummer, butiksstorlek och tisdagstid verifierade på verksamhetens officiella webbplats. Koordinater lämnas NULL."
      }
    },
    {
      "type": "Feature",
      "geometry": null,
      "properties": {
        "stop_order": 3,
        "public_id": "blekinge-roda-korset-kristianstad",
        "name": "Röda Korset Second hand Kristianstad",
        "address": "Östra Vallgatan 19",
        "postcode": "291 31",
        "locality": "Kristianstad",
        "latitude": null,
        "longitude": null,
        "tuesday_opens": "10:00",
        "tuesday_closes": "16:00",
        "tuesday_status": "verified_open",
        "candidate_status": "selected",
        "visit_minutes": 35,
        "assessment": "Normal prioritet: centralt och stabilt välgörenhetsstopp.",
        "source_url": "https://www.rodakorset.se/ort/skane/kristianstads-kommun/second-hand/roda-korset-second-hand-kristianstad/",
        "checked_at": "2026-07-26",
        "notes": "Adress, postnummer och tisdagstid verifierade på Röda Korsets officiella butikssida. Koordinater lämnas NULL."
      }
    },
    {
      "type": "Feature",
      "geometry": null,
      "properties": {
        "stop_order": 4,
        "public_id": "blekinge-pmu-kristianstad",
        "name": "PMU Second Hand Kristianstad",
        "address": "Näsbychaussén 119",
        "postcode": "291 36",
        "locality": "Kristianstad",
        "latitude": null,
        "longitude": null,
        "tuesday_opens": "12:00",
        "tuesday_closes": "17:00",
        "tuesday_status": "verified_open",
        "candidate_status": "selected",
        "visit_minutes": 60,
        "assessment": "Hög prioritet: möbler, teknik, böcker, husgeråd, fritidsprylar och kafé.",
        "source_url": "https://pmu.se/butik/kristianstad/",
        "checked_at": "2026-07-26",
        "notes": "Adress, postnummer, sortiment och tisdagstid verifierade på PMU:s officiella butikssida. Koordinater lämnas NULL."
      }
    },
    {
      "type": "Feature",
      "geometry": null,
      "properties": {
        "stop_order": 5,
        "public_id": "blekinge-erikshjalpen-kristianstad",
        "name": "Erikshjälpen Second Hand Kristianstad",
        "address": "Karlsgatan 47",
        "postcode": "291 59",
        "locality": "Kristianstad",
        "latitude": null,
        "longitude": null,
        "tuesday_opens": "12:00",
        "tuesday_closes": "18:00",
        "tuesday_status": "verified_open",
        "candidate_status": "selected",
        "visit_minutes": 60,
        "assessment": "Hög prioritet: över 1500 kvadratmeter med möbler och brett sortiment.",
        "source_url": "https://erikshjalpen.se/butiker/second-hand-kristianstad/",
        "checked_at": "2026-07-26",
        "notes": "Adress, postnummer, butiksstorlek, sortiment och tisdagstid verifierade på Erikshjälpens officiella butikssida. Koordinater lämnas NULL."
      }
    },
    {
      "type": "Feature",
      "geometry": null,
      "properties": {
        "stop_order": 6,
        "public_id": "blekinge-tva-hjartan-solvesborg",
        "name": "Två Hjärtan Sölvesborg",
        "address": "Skånevägen 32",
        "postcode": null,
        "locality": "Sölvesborg",
        "latitude": null,
        "longitude": null,
        "tuesday_opens": "10:00",
        "tuesday_closes": "18:00",
        "tuesday_status": "verified_open",
        "candidate_status": "selected",
        "visit_minutes": 45,
        "assessment": "Normal prioritet: ideell second hand med bred vardagsöppettid.",
        "source_url": "https://tvahjartan.com/",
        "checked_at": "2026-07-26",
        "notes": "Adress och tisdagstid verifierade på verksamhetens officiella webbplats. Postnummer och koordinater lämnas NULL."
      }
    },
    {
      "type": "Feature",
      "geometry": null,
      "properties": {
        "stop_order": 7,
        "public_id": "blekinge-norreboden-solvesborg",
        "name": "Norreboden Second Hand",
        "address": "Norra Bryggerigatan 3",
        "postcode": "294 34",
        "locality": "Sölvesborg",
        "latitude": null,
        "longitude": null,
        "tuesday_opens": "16:00",
        "tuesday_closes": "19:00",
        "tuesday_status": "verified_open",
        "candidate_status": "conditional",
        "visit_minutes": 45,
        "assessment": "Villkorat stopp med möbler, kläder, leksaker och prylar; öppnar sent på tisdagen.",
        "source_url": "https://www.folkkyrkan.se/kontakt",
        "checked_at": "2026-07-26",
        "notes": "Adress, postnummer, sortiment och tisdagstid verifierade på verksamhetens officiella webbplats. Koordinater lämnas NULL. Sen öppning kräver särskild tidsplanering."
      }
    },
    {
      "type": "Feature",
      "geometry": null,
      "properties": {
        "stop_order": 8,
        "public_id": "blekinge-varuformedling-asarum",
        "name": "Blekinge Varuförmedling",
        "address": "Verkstadsvägen 1",
        "postcode": "374 50",
        "locality": "Asarum",
        "latitude": null,
        "longitude": null,
        "tuesday_opens": "12:00",
        "tuesday_closes": "18:00",
        "tuesday_status": "verified_open",
        "candidate_status": "selected",
        "visit_minutes": 60,
        "assessment": "Hög prioritet: stark loppisprofil med verktyg, elektronik, vinyl, möbler och hushållsvaror.",
        "source_url": "https://blekingevaruformedling.se/kontakt/",
        "checked_at": "2026-07-26",
        "notes": "Adress, postnummer, sortiment och tisdagstid verifierade på verksamhetens officiella webbplats. Koordinater lämnas NULL."
      }
    },
    {
      "type": "Feature",
      "geometry": null,
      "properties": {
        "stop_order": 9,
        "public_id": "blekinge-hallbaren-karlshamn",
        "name": "Hållbaren Karlshamn",
        "address": "Boktryckargatan 3",
        "postcode": null,
        "locality": "Karlshamn",
        "latitude": null,
        "longitude": null,
        "tuesday_opens": "10:00",
        "tuesday_closes": "15:30",
        "tuesday_status": "verified_open",
        "candidate_status": "conditional",
        "visit_minutes": 35,
        "assessment": "Villkorat kommunalt återbruksstopp med kortare dag och lunchstängning.",
        "source_url": "https://www.karlshamn.se/bygga-bo-och-miljo/avfall-och-atervinning/hallbaren/",
        "checked_at": "2026-07-26",
        "notes": "Adress och vardagstid verifierade på Karlshamns kommuns sida. Sidan anger lunchstängt 12:00–13:00; exporten använder ytterintervallet 10:00–15:30. Postnummer och koordinater lämnas NULL."
      }
    },
    {
      "type": "Feature",
      "geometry": null,
      "properties": {
        "stop_order": 10,
        "public_id": "blekinge-34ans-fynd-karlshamn",
        "name": "34:ans Fynd Karlshamn",
        "address": "Rörvägen 4",
        "postcode": "374 32",
        "locality": "Karlshamn",
        "latitude": null,
        "longitude": null,
        "tuesday_opens": "13:00",
        "tuesday_closes": "18:00",
        "tuesday_status": "verified_open",
        "candidate_status": "selected",
        "visit_minutes": 60,
        "assessment": "Hög prioritet: större second hand-butik med kafé och bred fyndprofil.",
        "source_url": "https://www.34ansfynd.se/",
        "checked_at": "2026-07-26",
        "notes": "Adress, postnummer och tisdagstid verifierade på verksamhetens officiella webbplats. Koordinater lämnas NULL."
      }
    },
    {
      "type": "Feature",
      "geometry": null,
      "properties": {
        "stop_order": 11,
        "public_id": "blekinge-roda-korset-karlshamn",
        "name": "Röda Korset Second hand Karlshamn",
        "address": "Strömmavägen 2",
        "postcode": "374 32",
        "locality": "Karlshamn",
        "latitude": null,
        "longitude": null,
        "tuesday_opens": "13:00",
        "tuesday_closes": "17:00",
        "tuesday_status": "verified_open",
        "candidate_status": "selected",
        "visit_minutes": 45,
        "assessment": "Normal prioritet: cirka 700 kvadratmeter med mindre möbler, media, elektronik och husgeråd.",
        "source_url": "https://www.rodakorset.se/ort/blekinge/karlshamns-kommun/second-hand/roda-korset-second-hand-karlshamn/",
        "checked_at": "2026-07-26",
        "notes": "Adress, postnummer, butiksstorlek, sortiment och tisdagstid verifierade på Röda Korsets officiella butikssida. Koordinater lämnas NULL."
      }
    }
  ]
}
