{
  "type": "FeatureCollection",
  "name": "Söderrundan version 1",
  "generated_at": "2026-07-26",
  "crs": {
    "type": "name",
    "properties": {
      "name": "urn:ogc:def:crs:OGC:1.3:CRS84"
    }
  },
  "features": [
    {
      "type": "Feature",
      "id": "south-erikshjalpen-lund-vasterbro",
      "geometry": {"type": "Point", "coordinates": [13.173413, 55.711305]},
      "properties": {"stop_order": 1, "name": "Erikshjälpen Second Hand Lund Västerbro", "address": "Åldermansgatan 2", "postcode": "227 64", "locality": "Lund", "tuesday_opens": "10:00", "tuesday_closes": "18:00", "tuesday_status": "verified_open", "candidate_status": "selected", "visit_minutes": 60, "source_url": "https://erikshjalpen.se/butiker/lund-vasterbro/", "checked_at": "2026-07-26"}
    },
    {
      "type": "Feature",
      "id": "south-erikshjalpen-lund-city",
      "geometry": {"type": "Point", "coordinates": [13.192033, 55.700294]},
      "properties": {"stop_order": 2, "name": "Erikshjälpen Second Hand Lund City", "address": "Stora Södergatan 25", "postcode": "222 23", "locality": "Lund", "tuesday_opens": "11:00", "tuesday_closes": "18:00", "tuesday_status": "verified_open", "candidate_status": "selected", "visit_minutes": 45, "source_url": "https://erikshjalpen.se/butiker/second-hand-lund-city/", "checked_at": "2026-07-26"}
    },
    {
      "type": "Feature",
      "id": "south-erikshjalpen-malmo",
      "geometry": {"type": "Point", "coordinates": [13.038566, 55.601383]},
      "properties": {"stop_order": 3, "name": "Erikshjälpen Second Hand Malmö", "address": "Sallerupsvägen 88", "postcode": "212 28", "locality": "Malmö", "tuesday_opens": "10:00", "tuesday_closes": "18:00", "tuesday_status": "verified_open", "candidate_status": "selected", "visit_minutes": 60, "source_url": "https://erikshjalpen.se/butiker/second-hand-malmo/", "checked_at": "2026-07-26"}
    },
    {
      "type": "Feature",
      "id": "south-bjorkafrihet-heleneholm",
      "geometry": {"type": "Point", "coordinates": [13.01693, 55.58148]},
      "properties": {"stop_order": 4, "name": "Björkåfrihet Malmö Heleneholm", "address": "Lantmannagatan 59", "postcode": "214 48", "locality": "Malmö", "tuesday_opens": "10:00", "tuesday_closes": "19:00", "tuesday_status": "verified_open", "candidate_status": "selected", "visit_minutes": 45, "source_url": "https://english.bjorkafrihet.se/oppettider-bjorkafrihet-second-hand-butiker/", "checked_at": "2026-07-26"}
    },
    {
      "type": "Feature",
      "id": "south-skane-stadsmission-mobilia",
      "geometry": {"type": "Point", "coordinates": [13.003441, 55.581166]},
      "properties": {"stop_order": 5, "name": "Skåne Stadsmission Second Hand Mobilia", "address": "Per Albin Hanssons väg 40", "postcode": "214 32", "locality": "Malmö", "tuesday_opens": "10:00", "tuesday_closes": "20:00", "tuesday_status": "verified_open", "candidate_status": "selected", "visit_minutes": 35, "source_url": "https://www.skanestadsmission.se/second-hand/", "checked_at": "2026-07-26"}
    },
    {
      "type": "Feature",
      "id": "south-myrorna-malmo-centrum",
      "geometry": {"type": "Point", "coordinates": [13.004862, 55.593723]},
      "properties": {"stop_order": 6, "name": "Myrorna Malmö centrum", "address": "Södra Förstadsgatan 74A", "postcode": "214 20", "locality": "Malmö", "tuesday_opens": "10:00", "tuesday_closes": "18:00", "tuesday_status": "verified_open", "candidate_status": "selected", "visit_minutes": 35, "source_url": "https://www.myrorna.se/butiker/malmo/malmo-centrum/", "checked_at": "2026-07-26"}
    },
    {
      "type": "Feature",
      "id": "south-bjorkafrihet-malmo-city",
      "geometry": {"type": "Point", "coordinates": [13.0018, 55.5997]},
      "properties": {"stop_order": 7, "name": "Björkåfrihet Malmö City", "address": "Södra Förstadsgatan 14", "postcode": "211 43", "locality": "Malmö", "tuesday_opens": "11:00", "tuesday_closes": "19:00", "tuesday_status": "verified_open", "candidate_status": "selected", "visit_minutes": 35, "source_url": "https://bjorkafrihet.se/oppettider-bjorkafrihet-second-hand-butiker/", "checked_at": "2026-07-26"}
    },
    {
      "type": "Feature",
      "id": "south-ab-smaland-malmo",
      "geometry": {"type": "Point", "coordinates": [13.000942, 55.597979]},
      "properties": {"stop_order": 8, "name": "AB Småland", "address": "Södra Förstadsgatan 25-27", "postcode": "211 43", "locality": "Malmö", "tuesday_opens": "10:00", "tuesday_closes": "18:00", "tuesday_status": "verified_open", "candidate_status": "conditional", "visit_minutes": 30, "source_url": "https://www.skanestadsmission.se/second-hand/", "checked_at": "2026-07-26"}
    },
    {
      "type": "Feature",
      "id": "south-skane-stadsmission-triangeln",
      "geometry": {"type": "Point", "coordinates": [13.002445, 55.595799]},
      "properties": {"stop_order": 9, "name": "Skåne Stadsmission Second Hand Triangeln", "address": "Södra Förstadsgatan 41", "postcode": "211 43", "locality": "Malmö", "tuesday_opens": "10:00", "tuesday_closes": "20:00", "tuesday_status": "verified_open", "candidate_status": "conditional", "visit_minutes": 25, "source_url": "https://www.skanestadsmission.se/second-hand/", "checked_at": "2026-07-26"}
    },
    {
      "type": "Feature",
      "id": "south-erikshjalpen-trelleborg",
      "geometry": null,
      "properties": {"stop_order": 10, "name": "Erikshjälpen Second Hand Trelleborg", "address": "Hedvägen 185", "postcode": "231 66", "locality": "Trelleborg", "latitude": null, "longitude": null, "coordinate_status": "unverified", "tuesday_opens": "11:00", "tuesday_closes": "18:00", "tuesday_status": "verified_open", "candidate_status": "selected", "visit_minutes": 60, "source_url": "https://erikshjalpen.se/butiker/second-hand-trelleborg/", "checked_at": "2026-07-26"}
    },
    {
      "type": "Feature",
      "id": "south-roda-korset-ystad",
      "geometry": {"type": "Point", "coordinates": [13.82, 55.428208]},
      "properties": {"stop_order": 11, "name": "Röda Korset Second hand Ystad", "address": "Skansgatan 2", "postcode": "271 43", "locality": "Ystad", "tuesday_opens": "12:00", "tuesday_closes": "17:00", "tuesday_status": "verified_open", "candidate_status": "selected", "visit_minutes": 35, "source_url": "https://www.rodakorset.se/ort/skane/ystads-kommun/second-hand/roda-korset-second-hand-ystad/", "checked_at": "2026-07-26"}
    }
  ]
}
